{
    "links": {
        "self": "http://www.neowsapp.com/rest/v1/neo/3765609?api_key=iIulBulltgU6a56xZRHN4H3l9WmuAYTsLGpBGhQ2"
    },
    "id": "3765609",
    "neo_reference_id": "3765609",
    "name": "(2016 XP1)",
    "designation": "2016 XP1",
    "nasa_jpl_url": "http://ssd.jpl.nasa.gov/sbdb.cgi?sstr=3765609",
    "absolute_magnitude_h": 26.8,
    "estimated_diameter": {
        "kilometers": {
            "estimated_diameter_min": 0.0116025908,
            "estimated_diameter_max": 0.0259441818
        },
        "meters": {
            "estimated_diameter_min": 11.6025908209,
            "estimated_diameter_max": 25.9441817907
        },
        "miles": {
            "estimated_diameter_min": 0.0072095135,
            "estimated_diameter_max": 0.0161209622
        },
        "feet": {
            "estimated_diameter_min": 38.066244069,
            "estimated_diameter_max": 85.1187093863
        }
    },
    "is_potentially_hazardous_asteroid": false,
    "close_approach_data": [
        {
            "close_approach_date": "1983-02-01",
            "close_approach_date_full": "1983-Feb-01 18:48",
            "epoch_date_close_approach": 412973280000,
            "relative_velocity": {
                "kilometers_per_second": "17.2380958464",
                "kilometers_per_hour": "62057.1450469554",
                "miles_per_hour": "38559.8965987596"
            },
            "miss_distance": {
                "astronomical": "0.3320109158",
                "lunar": "129.1522462462",
                "kilometers": "49668125.820429346",
                "miles": "30862342.2789871348"
            },
            "orbiting_body": "Earth"
        },
        {
            "close_approach_date": "2016-12-05",
            "close_approach_date_full": "2016-Dec-05 10:42",
            "epoch_date_close_approach": 1480934520000,
            "relative_velocity": {
                "kilometers_per_second": "8.0863268165",
                "kilometers_per_hour": "29110.7765392842",
                "miles_per_hour": "18088.3044557569"
            },
            "miss_distance": {
                "astronomical": "0.0280615034",
                "lunar": "10.9159248226",
                "kilometers": "4197941.137637758",
                "miles": "2608479.6661187404"
            },
            "orbiting_body": "Earth"
        },
        {
            "close_approach_date": "2129-01-22",
            "close_approach_date_full": "2129-Jan-22 19:13",
            "epoch_date_close_approach": 5019477180000,
            "relative_velocity": {
                "kilometers_per_second": "13.0548115939",
                "kilometers_per_hour": "46997.3217381527",
                "miles_per_hour": "29202.3080544649"
            },
            "miss_distance": {
                "astronomical": "0.2274242355",
                "lunar": "88.4680276095",
                "kilometers": "34022181.217178385",
                "miles": "21140403.114836313"
            },
            "orbiting_body": "Earth"
        }
    ],
    "orbital_data": {
        "orbit_id": "5",
        "orbit_determination_date": "2017-04-06 08:21:40",
        "first_observation_date": "2016-12-04",
        "last_observation_date": "2016-12-09",
        "data_arc_in_days": 5,
        "observations_used": 49,
        "orbit_uncertainty": "7",
        "minimum_orbit_intersection": ".0208026",
        "jupiter_tisserand_invariant": "3.392",
        "epoch_osculation": "2459000.5",
        "eccentricity": ".5571387615276031",
        "semi_major_axis": "2.256078758562086",
        "inclination": "6.898829460505797",
        "ascending_node_longitude": "251.6157785647958",
        "orbital_period": "1237.741098634037",
        "perihelion_distance": ".9991298331080729",
        "perihelion_argument": "193.26098072083",
        "aphelion_distance": "3.513027684016098",
        "perihelion_time": "2458976.591217875950",
        "mean_anomaly": "6.953927258419948",
        "mean_motion": ".2908524249516264",
        "equinox": "J2000",
        "orbit_class": {
            "orbit_class_type": "APO",
            "orbit_class_description": "Near-Earth asteroid orbits which cross the Earth’s orbit similar to that of 1862 Apollo",
            "orbit_class_range": "a (semi-major axis) > 1.0 AU; q (perihelion) < 1.017 AU"
        }
    },
    "is_sentry_object": false
}